ORBCOMM FM24 [-]        
1 25478U 98053D   24090.63196934  .00002277  00000+0  83384-3 0  9993
2 25478  45.0067 207.8187 0002493 199.6217 160.4535 14.35443985333656
ORBCOMM FM25 [-]        
1 25479U 98053E   24090.59769959  .00002137  00000+0  78572-3 0  9990
2 25479  45.0061 206.2216 0005023 196.4685 163.6000 14.35427460333947
ORBCOMM FM26 [-]        
1 25480U 98053F   24090.58880539  .00001839  00000+0  68991-3 0  9991
2 25480  45.0056 200.2144 0007264 211.1545 148.8872 14.34900733333889
ORBCOMM FM27 [+]        
1 25481U 98053G   24090.58532854  .00002286  00000+0  83758-3 0  9991
2 25481  45.0045 206.5446 0001546 235.8493 124.2207 14.35405859333873
ORBCOMM FM28 [-]        
1 25482U 98053H   24090.16698378  .00002081  00000+0  75987-3 0  9998
2 25482  45.0042 147.1267 0005901 242.1042 117.9208 14.35851445334486
ORBCOMM FM30 [-]        
1 25980U 99065A   24090.55472925  .00001932  00000+0  72072-3 0  9992
2 25980  45.0330  25.8631 0007371 310.1646  49.8556 14.35041341270670
ORBCOMM FM31 [-]        
1 25981U 99065B   24090.52037275  .00001651  00000+0  62307-3 0  9993
2 25981  45.0243  19.7474 0004528 330.7757  29.2836 14.35047637271198
ORBCOMM FM32 [+]        
1 25982U 99065C   24090.54213305  .00001889  00000+0  72004-3 0  9994
2 25982  45.0170  33.1528 0007075 331.2909  28.7548 14.34017559270993
